NORAD_CAT_ID,OBJECT_NAME,OBJECT_TYPE,EPOCH,MEAN_MOTION,ECCENTRICITY,INCLINATION,RA_OF_ASC_NODE,ARG_OF_PERICENTER,MEAN_ANOMALY,BSTAR,MEAN_MOTION_DOT,MEAN_MOTION_DDOT,TLE_LINE0,TLE_LINE1,TLE_LINE2,SEMIMAJOR_AXIS,PERIOD,APOGEE,PERIGEE,DECAYED
51714.0,STARLINK-3528,PAYLOAD,2023-12-23 06:43:47,15.08839357,0.0001839,53.2187,353.7169,111.1779,248.941,2.1068e-05,4.7e-07,0.0,0 STARLINK-3528,1 51714U 22016A   23357.28041598  .00000047  00000-0  21068-4 0  9998,2 51714  53.2187 353.7169 0001839 111.1779 248.9410 15.08839357101535,6917.882,95.438,541.02,538.475,0.0
51714.0,STARLINK-3528,PAYLOAD,2023-12-24 04:59:11,15.08832815,0.0001914,53.2201,349.5635,113.7974,246.3219,0.00022781,3.339e-05,0.0,0 STARLINK-3528,1 51714U 22016A   23358.20777624  .00003339  00000-0  22781-3 0  9996,2 51714  53.2201 349.5635 0001914 113.7974 246.3219 15.08832815102747,6917.902,95.438,541.091,538.443,0.0
51714.0,STARLINK-3528,PAYLOAD,2023-12-25 06:25:22,15.08840334,0.0001543,53.2196,344.8039,100.5978,259.5188,4.4497e-05,4.2e-06,0.0,0 STARLINK-3528,1 51714U 22016A   23359.26761962  .00000420  00000-0  44497-4 0  9998,2 51714  53.2196 344.8039 0001543 100.5978 259.5188 15.08840334102906,6917.879,95.438,540.812,538.677,0.0
51714.0,STARLINK-3528,PAYLOAD,2023-12-26 03:05:23,15.08837405,0.0001488,53.2192,340.9316,99.2663,260.8497,-3.2347e-05,-8.03e-06,0.0,0 STARLINK-3528,1 51714U 22016A   23360.12874503 -.00000803  00000-0 -32347-4 0  9999,2 51714  53.2192 340.9316 0001488  99.2663 260.8497 15.08837405103038,6917.888,95.438,540.783,538.724,0.0
51714.0,STARLINK-3528,PAYLOAD,2023-12-26 07:51:32,15.08844003,0.0001414,53.2188,340.0441,92.0783,268.0371,5.1519e-05,5.32e-06,0.0,0 STARLINK-3528,1 51714U 22016A   23360.32745956  .00000532  00000-0  51519-4 0  9999,2 51714  53.2188 340.0441 0001414  92.0783 268.0371 15.08844003103062,6917.868,95.437,540.711,538.755,0.0
51714.0,STARLINK-3528,PAYLOAD,2023-12-27 07:42:18,15.08850733,0.000152,53.219,335.5777,94.1456,265.9709,0.0001403,1.946e-05,0.0,0 STARLINK-3528,1 51714U 22016A   23361.32105230  .00001946  00000-0  14030-3 0  9991,2 51714  53.2190 335.5777 0001520  94.1456 265.9709 15.08850733102140,6917.848,95.437,540.764,538.661,0.0
51714.0,STARLINK-3528,PAYLOAD,2023-12-27 22:00:48,15.08839354,0.0002168,53.217,332.9086,68.9818,291.1406,6.763e-05,7.88e-06,0.0,0 STARLINK-3528,1 51714U 22016A   23361.91722602  .00000788  00000-0  67630-4 0  9992,2 51714  53.2170 332.9086 0002168  68.9818 291.1406 15.08839354102233,6917.882,95.438,541.247,538.248,0.0
51714.0,STARLINK-3528,PAYLOAD,2023-12-28 04:22:20,15.08838323,0.0001478,53.2187,331.7152,99.9279,260.188,9.8862e-06,-1.31e-06,0.0,0 STARLINK-3528,1 51714U 22016A   23362.18218623 -.00000131  00000-0  98862-5 0  9990,2 51714  53.2187 331.7152 0001478  99.9279 260.1880 15.08838323103340,6917.886,95.438,540.773,538.728,0.0
51714.0,STARLINK-3528,PAYLOAD,2023-12-28 07:33:06,15.08843946,0.00014,53.2183,331.1188,103.0562,257.0586,5.8605e-05,6.45e-06,0.0,0 STARLINK-3528,1 51714U 22016A   23362.31466105  .00000645  00000-0  58605-4 0  9994,2 51714  53.2183 331.1188 0001400 103.0562 257.0586 15.08843946102294,6917.868,95.437,540.702,538.765,0.0
51714.0,STARLINK-3528,PAYLOAD,2023-12-29 07:23:53,15.08854669,0.0001377,53.2174,326.6565,105.0871,255.0274,3.8191e-05,3.2e-06,0.0,0 STARLINK-3528,1 51714U 22016A   23363.30825374  .00000320  00000-0  38191-4 0  9999,2 51714  53.2174 326.6565 0001377 105.0871 255.0274 15.08854669102443,6917.836,95.437,540.653,538.748,0.0
51714.0,STARLINK-3528,PAYLOAD,2023-12-30 04:03:54,15.08841213,0.0001506,53.2182,322.7923,90.128,269.9884,3.617e-05,2.88e-06,0.0,0 STARLINK-3528,1 51714U 22016A   23364.16938294  .00000288  00000-0  36170-4 0  9998,2 51714  53.2182 322.7923 0001506  90.1280 269.9884 15.08841213103644,6917.877,95.437,540.784,538.7,0.0
51714.0,STARLINK-3528,PAYLOAD,2023-12-30 07:14:40,15.08843456,0.0001458,53.218,322.1966,90.9762,269.1397,5.408e-05,5.73e-06,0.0,0 STARLINK-3528,1 51714U 22016A   23364.30186104  .00000573  00000-0  54080-4 0  9996,2 51714  53.2180 322.1966 0001458  90.9762 269.1397 15.08843456102597,6917.87,95.437,540.743,538.726,0.0
51714.0,STARLINK-3528,PAYLOAD,2023-12-31 21:23:56,15.08834699,0.0001485,53.2183,315.0589,102.7081,257.4077,-5.5991e-06,-3.77e-06,0.0,0 STARLINK-3528,1 51714U 22016A   23365.89162816 -.00000377  00000-0 -55991-5 0  9992,2 51714  53.2183 315.0589 0001485 102.7081 257.4077 15.08834699102839,6917.897,95.438,540.789,538.734,0.0
51714.0,STARLINK-3528,PAYLOAD,2024-01-01 03:45:28,15.0883921,0.0001615,53.2186,313.8717,99.174,260.9435,8.3011e-06,-1.56e-06,0.0,0 STARLINK-3528,1 51714U 22016A   24001.15658555 -.00000156  00000-0  83011-5 0  9997,2 51714  53.2186 313.8717 0001615  99.1740 260.9435 15.08839210103941,6917.883,95.438,540.865,538.631,0.0
51714.0,STARLINK-3528,PAYLOAD,2024-01-01 06:56:15,15.08840542,0.0001596,53.2184,313.277,101.2093,258.9079,1.3885e-05,-6.7e-07,0.0,0 STARLINK-3528,1 51714U 22016A   24001.28906470 -.00000067  00000-0  13885-4 0  9995,2 51714  53.2184 313.2770 0001596 101.2093 258.9079 15.08840542102890,6917.879,95.438,540.848,538.64,0.0
51714.0,STARLINK-3528,PAYLOAD,2024-01-02 06:47:02,15.08841292,0.0001714,53.2182,308.8157,112.1144,248.003,3.2481e-05,2.29e-06,0.0,0 STARLINK-3528,1 51714U 22016A   24002.28266571  .00000229  00000-0  32481-4 0  9999,2 51714  53.2182 308.8157 0001714 112.1144 248.0030 15.08841292104114,6917.876,95.437,540.927,538.556,0.0
51714.0,STARLINK-3528,PAYLOAD,2024-01-03 03:27:04,15.08790769,0.0001806,53.2185,304.9491,91.1767,268.9432,0.0007768,0.0001208,0.0,0 STARLINK-3528,1 51714U 22016A   24003.14379952  .00012080  00000-0  77680-3 0  9990,2 51714  53.2185 304.9491 0001806  91.1767 268.9432 15.08790769104247,6918.031,95.441,541.145,538.646,0.0
51714.0,STARLINK-3528,PAYLOAD,2024-01-03 06:37:49,15.08841683,0.0001574,53.2187,304.3562,99.303,260.814,7.4837e-05,9.03e-06,0.0,0 STARLINK-3528,1 51714U 22016A   24003.27626647  .00000903  00000-0  74837-4 0  9993,2 51714  53.2187 304.3562 0001574  99.3030 260.8140 15.08841683104268,6917.875,95.437,540.829,538.651,0.0
51714.0,STARLINK-3528,PAYLOAD,2024-01-04 04:53:13,15.08844575,0.0001616,53.2187,300.1932,95.9527,264.1649,7.5224e-05,9.1e-06,0.0,0 STARLINK-3528,1 51714U 22016A   24004.20362560  .00000910  00000-0  75224-4 0  9997,2 51714  53.2187 300.1932 0001616  95.9527 264.1649 15.08844575103334,6917.866,95.437,540.849,538.613,0.0
51714.0,STARLINK-3528,PAYLOAD,2024-01-05 01:33:13,15.0884881,0.0001512,53.2182,296.327,91.0598,269.0567,2.2934e-05,7.7e-07,0.0,0 STARLINK-3528,1 51714U 22016A   24005.06474285  .00000077  00000-0  22934-4 0  9994,2 51714  53.2182 296.3270 0001512  91.0598 269.0567 15.08848810104532,6917.853,95.437,540.764,538.672,0.0
51714.0,STARLINK-3528,PAYLOAD,2024-01-06 04:34:47,15.08838921,0.0001717,53.2184,291.2707,74.4637,285.6545,-2.331e-05,-6.59e-06,0.0,0 STARLINK-3528,1 51714U 22016A   24006.19083148 -.00000659  00000-0 -23310-4 0  9990,2 51714  53.2184 291.2707 0001717  74.4637 285.6545 15.08838921104700,6917.884,95.438,540.936,538.561,0.0
51714.0,STARLINK-3528,PAYLOAD,2024-01-06 22:04:01,15.08853175,0.000142,53.2179,288.0007,103.9204,256.1947,-0.00015199,-2.707e-05,0.0,0 STARLINK-3528,1 51714U 22016A   24006.91946610 -.00002707  00000-0 -15199-3 0  9993,2 51714  53.2179 288.0007 0001420 103.9204 256.1947 15.08853175103740,6917.84,95.437,540.687,538.723,0.0
51714.0,STARLINK-3528,PAYLOAD,2024-01-07 01:14:48,15.08846972,0.0001563,53.2182,287.4059,108.5,251.6162,-3.3491e-05,-8.21e-06,0.0,0 STARLINK-3528,1 51714U 22016A   24007.05194455 -.00000821  00000-0 -33491-4 0  9992,2 51714  53.2182 287.4059 0001563 108.5000 251.6162 15.08846972104834,6917.859,95.437,540.805,538.643,0.0
51714.0,STARLINK-3528,PAYLOAD,2024-01-07 18:44:03,15.08835368,0.0001531,53.218,284.1362,92.948,267.1687,2.9425e-05,1.8e-06,0.0,0 STARLINK-3528,1 51714U 22016A   24007.78059242  .00000180  00000-0  29425-4 0  9994,2 51714  53.2180 284.1362 0001531  92.9480 267.1687 15.08835368104949,6917.895,95.438,540.819,538.7,0.0
51714.0,STARLINK-3528,PAYLOAD,2024-01-07 21:54:49,15.08835229,0.0001556,53.2182,283.5414,104.6449,255.4716,2.7889e-05,1.56e-06,0.0,0 STARLINK-3528,1 51714U 22016A   24007.91307202  .00000156  00000-0  27889-4 0  9996,2 51714  53.2182 283.5414 0001556 104.6449 255.4716 15.08835229103897,6917.895,95.438,540.836,538.684,0.0
51714.0,STARLINK-3528,PAYLOAD,2024-01-08 04:16:21,15.08837822,0.0001369,53.2178,282.3515,94.8493,265.2656,4.4905e-05,4.27e-06,0.0,0 STARLINK-3528,1 51714U 22016A   24008.17803068  .00000427  00000-0  44905-4 0  9995,2 51714  53.2178 282.3515 0001369  94.8493 265.2656 15.08837822103930,6917.887,95.438,540.699,538.805,0.0
51714.0,STARLINK-3528,PAYLOAD,2024-01-08 21:45:34,15.08855537,0.0001165,53.2173,279.086,87.8209,272.2916,0.00010431,1.373e-05,0.0,0 STARLINK-3528,1 51714U 22016A   24008.90665401  .00001373  00000-0  10431-3 0  9990,2 51714  53.2173 279.0860 0001165  87.8209 272.2916 15.08855537104045,6917.833,95.437,540.504,538.892,0.0
51714.0,STARLINK-3528,PAYLOAD,2024-01-08 23:20:57,15.08857654,0.000134,53.2175,278.7892,86.8326,273.2819,0.00011941,1.614e-05,0.0,0 STARLINK-3528,1 51714U 22016A   24008.97289175  .00001614  00000-0  11941-3 0  9992,2 51714  53.2175 278.7892 0001340  86.8326 273.2819 15.08857654105127,6917.826,95.436,540.618,538.764,0.0
51714.0,STARLINK-3528,PAYLOAD,2024-01-09 21:36:21,15.0885066,0.0001606,53.2177,274.6202,113.6718,246.4443,0.00010436,1.374e-05,0.0,0 STARLINK-3528,1 51714U 22016A   24009.90025004  .00001374  00000-0  10436-3 0  9996,2 51714  53.2177 274.6202 0001606 113.6718 246.4443 15.08850660104199,6917.848,95.437,540.824,538.602,0.0
51714.0,STARLINK-3528,PAYLOAD,2024-01-10 03:57:56,15.08822214,0.0001461,53.2176,273.4312,96.2408,263.875,-0.00013916,-2.501e-05,0.0,0 STARLINK-3528,1 51714U 22016A   24010.16523445 -.00002501  00000-0 -13916-3 0  9999,2 51714  53.2176 273.4312 0001461  96.2408 263.8750 15.08822214105300,6917.935,95.439,540.81,538.789,0.0
